GSAT0101 (PRN E11)      
1 37846U 11060A   21132.02645380 -.00000092  00000-0  00000-0 0  9995
2 37846  56.8191  32.2765 0004056   8.7339 351.3021  1.70475469 59372
GSAT0102 (PRN E12)      
1 37847U 11060B   21132.13328597 -.00000092  00000-0  00000-0 0  9996
2 37847  56.8202  32.2729 0004647 341.6879 130.1718  1.70475679 59380
GSAT0103 (PRN E19)      
1 38857U 12055A   21130.89464105  .00000075  00000-0  00000-0 0  9990
2 38857  55.0372 152.7697 0005232 268.3583  91.6455  1.70473850 53248
GSAT0104 (PRN E20)      
1 38858U 12055B   21130.86545093  .00000075  00000-0  00000-0 0  9994
2 38858  55.0370 152.7719 0002674 266.4963  93.5371  1.70480594 53241
GSAT0201 (PRN E18)      
1 40128U 14050A   21133.27086453 -.00000101  00000-0  00000-0 0  9993
2 40128  50.4880 348.2237 1650515 110.1724 268.3335  1.85518963 43799
GSAT0202 (PRN E14)      
1 40129U 14050B   21131.37732890 -.00000107  00000-0  00000-0 0  9992
2 40129  50.5201 347.3470 1647860 110.9161 267.4928  1.85519696 45928
GSAT0203 (PRN E26)      
1 40544U 15017A   21132.39455327 -.00000091  00000-0  00000+0 0  9998
2 40544  56.6138  32.3547 0002488 285.9987  74.0040  1.70474660 38126
GSAT0204 (PRN E22)      
1 40545U 15017B   21133.23447649 -.00000087  00000-0  00000-0 0  9997
2 40545  56.6203  32.3425 0001631 268.7175  91.2970  1.70475737   524
GSAT0205 (PRN E24)      
1 40889U 15045A   21131.82962017 -.00000035  00000-0  00000+0 0  9995
2 40889  55.9037 273.0496 0004294  25.3881 334.5865  1.70475646 35267
GSAT0206 (PRN E30)      
1 40890U 15045B   21132.04910948 -.00000034  00000-0  00000-0 0  9998
2 40890  55.9009 273.0398 0002429  21.6079 338.3568  1.70475710 35292
GSAT0209 (PRN E09)      
1 41174U 15079A   21132.22341048  .00000075  00000-0  00000-0 0  9994
2 41174  55.0528 152.4334 0005733 302.6664  57.3352  1.70473589 33039
GSAT0208 (PRN E08)      
1 41175U 15079B   21131.26992806  .00000075  00000-0  00000-0 0  9992
2 41175  55.0510 152.4587 0004935 301.1896  58.8237  1.70473677 33435
GSAT0211 (PRN E02)      
1 41549U 16030A   21132.56405499 -.00000030  00000-0  00000-0 0  9998
2 41549  56.0451 272.9164 0002753 337.5634  22.3815  1.70475376 30931
GSAT0210 (PRN E01)      
1 41550U 16030B   21130.51053873 -.00000042  00000-0  00000-0 0  9991
2 41550  56.0470 272.9741 0001726 292.0553  67.8761  1.70475504 30891
GSAT0207 (PRN E07)      
1 41859U 16069A   21130.75632038  .00000074  00000-0  00000-0 0  9991
2 41859  54.7114 152.7547 0005803 291.6225  68.3800  1.70473532 27630
GSAT0212 (PRN E03)      
1 41860U 16069B   21131.78290565  .00000074  00000-0  00000-0 0  9992
2 41860  54.7097 152.7247 0004505 307.6329  52.3860  1.70473535 27902
GSAT0213 (PRN E04)      
1 41861U 16069C   21132.14858148  .00000074  00000-0  00000-0 0  9991
2 41861  54.7118 152.7189 0005338 274.8791  85.1178  1.70473634 27776
GSAT0214 (PRN E05)      
1 41862U 16069D   21132.29560691  .00000074  00000-0  00000-0 0  9991
2 41862  54.7104 152.7099 0004471 278.9922  81.0143  1.70473638 27906
GSAT0215 (PRN E21)      
1 43055U 17079A   21131.02654249 -.00000039  00000-0  00000-0 0  9994
2 43055  56.0227 272.7970 0001105 283.3008  76.6378  1.70474623 21224
GSAT0216 (PRN E25)      
1 43056U 17079B   21132.49224262 -.00000031  00000-0  00000+0 0  9996
2 43056  56.0208 272.7565 0002939 279.3750  80.5485  1.70474705 21234
GSAT0217 (PRN E27)      
1 43057U 17079C   21131.53919534 -.00000036  00000-0  00000-0 0  9990
2 43057  56.0200 272.7829 0002613 300.3380  59.5887  1.70474635 21237
GSAT0218 (PRN E31)      
1 43058U 17079D   21131.75920061 -.00000035  00000-0  00000-0 0  9991
2 43058  56.0206 272.7742 0003369 273.3222  86.5926  1.70474650 21265
GSAT0221 (PRN E15)      
1 43564U 18060A   21132.24442560 -.00000091  00000-0  00000-0 0  9994
2 43564  56.9988  32.0715 0003665 301.3073  58.6872  1.70475655 17424
GSAT0222 (PRN E33)      
1 43565U 18060B   21131.29109221 -.00000095  00000-0  00000-0 0  9997
2 43565  57.0005  32.0972 0003711 311.8670  48.1276  1.70475631 17452
GSAT0219 (PRN E36)      
1 43566U 18060C   21130.92508255 -.00000097  00000-0  00000-0 0  9999
2 43566  57.0013  32.1090 0003471 315.2511  44.7456  1.70475662 17422
GSAT0220 (PRN E13)      
1 43567U 18060D   21132.31807519 -.00000091  00000-0  00000-0 0  9994
2 43567  57.0007  32.0717 0003352 309.6825  50.3186  1.70475712 17434
